{
  "type": "FeatureCollection",
  "features": [
    {
      "type": "Feature",
      "properties": {
        "norad_id": 46277,
        "name": "NEMO-HD",
        "group": "resource",
        "lat": 1.1851619257013748,
        "lon": 58.72597533320042,
        "alt_km": 446.86562468788907,
        "timestamp": "2025-12-25T22:42:16.654185+00:00",
        "meta_object_name": "NEMO-HD",
        "meta_object_id": "2020-061F",
        "meta_epoch": "2025-12-25T18:01:22.365984",
        "meta_mean_motion": 15.40592324,
        "meta_eccentricity": 0.0001034,
        "meta_inclination": 97.2188,
        "meta_ra_of_asc_node": 58.6836,
        "meta_arg_of_pericenter": 52.5544,
        "meta_mean_anomaly": 307.5797,
        "meta_ephemeris_type": 0,
        "meta_classification_type": "U",
        "meta_norad_cat_id": 46277,
        "meta_element_set_no": 999,
        "meta_rev_at_epoch": 29524,
        "meta_bstar": 0.00027011,
        "meta_mean_motion_dot": 0.00010909,
        "meta_mean_motion_ddot": 0,
        "tle_line1": "1 46277U 20061F   25359.75095331  .00010909  00000+0  27011-3 0  9994",
        "tle_line2": "2 46277  97.2188  58.6836 0001034  52.5544 307.5797 15.40592324295247"
      },
      "geometry": {
        "type": "Point",
        "coordinates": [
          58.72597533320042,
          1.1851619257013748
        ]
      }
    },
    {
      "type": "Feature",
      "properties": {
        "norad_id": 46984,
        "name": "SENTINEL-6A",
        "group": "resource",
        "lat": 25.409800204173727,
        "lon": -57.31568529647567,
        "alt_km": 1338.660445341412,
        "timestamp": "2025-12-25T22:42:16.654195+00:00",
        "meta_object_name": "SENTINEL-6A",
        "meta_object_id": "2020-086A",
        "meta_epoch": "2025-12-25T18:09:57.449088",
        "meta_mean_motion": 12.80930775,
        "meta_eccentricity": 0.0007755,
        "meta_inclination": 66.0401,
        "meta_ra_of_asc_node": 135.271,
        "meta_arg_of_pericenter": 269.4393,
        "meta_mean_anomaly": 90.5733,
        "meta_ephemeris_type": 0,
        "meta_classification_type": "U",
        "meta_norad_cat_id": 46984,
        "meta_element_set_no": 999,
        "meta_rev_at_epoch": 23811,
        "meta_bstar": 4.7279e-05,
        "meta_mean_motion_dot": -5e-07,
        "meta_mean_motion_ddot": 0,
        "tle_line1": "1 46984U 20086A   25359.75691492 -.00000050  00000+0  47279-4 0  9992",
        "tle_line2": "2 46984  66.0401 135.2710 0007755 269.4393  90.5733 12.80930775238113"
      },
      "geometry": {
        "type": "Point",
        "coordinates": [
          -57.31568529647567,
          25.409800204173727
        ]
      }
    },
    {
      "type": "Feature",
      "properties": {
        "norad_id": 48079,
        "name": "GAOFEN-12 02",
        "group": "resource",
        "lat": 33.50994822480764,
        "lon": 179.22263626593414,
        "alt_km": 624.2959740692168,
        "timestamp": "2025-12-25T22:42:16.654205+00:00",
        "meta_object_name": "GAOFEN-12 02",
        "meta_object_id": "2021-026A",
        "meta_epoch": "2025-12-25T18:48:14.279904",
        "meta_mean_motion": 14.80690151,
        "meta_eccentricity": 0.0003544,
        "meta_inclination": 97.9858,
        "meta_ra_of_asc_node": 353.7274,
        "meta_arg_of_pericenter": 74.9133,
        "meta_mean_anomaly": 285.2471,
        "meta_ephemeris_type": 0,
        "meta_classification_type": "U",
        "meta_norad_cat_id": 48079,
        "meta_element_set_no": 999,
        "meta_rev_at_epoch": 25610,
        "meta_bstar": 7.7686e-05,
        "meta_mean_motion_dot": 5.44e-06,
        "meta_mean_motion_ddot": 0,
        "tle_line1": "1 48079U 21026A   25359.78349861  .00000544  00000+0  77686-4 0  9999",
        "tle_line2": "2 48079  97.9858 353.7274 0003544  74.9133 285.2471 14.80690151256108"
      },
      "geometry": {
        "type": "Point",
        "coordinates": [
          179.22263626593414,
          33.50994822480764
        ]
      }
    },
    {
      "type": "Feature",
      "properties": {
        "norad_id": 48268,
        "name": "PLEIADES NEO 3",
        "group": "resource",
        "lat": -77.1854975913667,
        "lon": -145.3921412479858,
        "alt_km": 632.3056580455541,
        "timestamp": "2025-12-25T22:42:16.654215+00:00",
        "meta_object_name": "PLEIADES NEO 3",
        "meta_object_id": "2021-034A",
        "meta_epoch": "2025-12-25T18:17:37.624128",
        "meta_mean_motion": 14.81672436,
        "meta_eccentricity": 0.0001326,
        "meta_inclination": 97.8942,
        "meta_ra_of_asc_node": 72.0165,
        "meta_arg_of_pericenter": 88.7869,
        "meta_mean_anomaly": 271.3496,
        "meta_ephemeris_type": 0,
        "meta_classification_type": "U",
        "meta_norad_cat_id": 48268,
        "meta_element_set_no": 999,
        "meta_rev_at_epoch": 25197,
        "meta_bstar": 3.7304e-05,
        "meta_mean_motion_dot": 2.42e-06,
        "meta_mean_motion_ddot": 0,
        "tle_line1": "1 48268U 21034A   25359.76224102  .00000242  00000+0  37304-4 0  9994",
        "tle_line2": "2 48268  97.8942  72.0165 0001326  88.7869 271.3496 14.81672436251976"
      },
      "geometry": {
        "type": "Point",
        "coordinates": [
          -145.3921412479858,
          -77.1854975913667
        ]
      }
    },
    {
      "type": "Feature",
      "properties": {
        "norad_id": 49070,
        "name": "PLEIADES NEO 4",
        "group": "resource",
        "lat": 77.20072530534074,
        "lon": 34.54884341885958,
        "alt_km": 615.849029248674,
        "timestamp": "2025-12-25T22:42:16.654228+00:00",
        "meta_object_name": "PLEIADES NEO 4",
        "meta_object_id": "2021-073E",
        "meta_epoch": "2025-12-25T19:06:13.955040",
        "meta_mean_motion": 14.81672316,
        "meta_eccentricity": 0.000136,
        "meta_inclination": 97.8943,
        "meta_ra_of_asc_node": 72.0456,
        "meta_arg_of_pericenter": 88.0145,
        "meta_mean_anomaly": 272.1223,
        "meta_ephemeris_type": 0,
        "meta_classification_type": "U",
        "meta_norad_cat_id": 49070,
        "meta_element_set_no": 999,
        "meta_rev_at_epoch": 23569,
        "meta_bstar": -6.1229e-05,
        "meta_mean_motion_dot": -5.34e-06,
        "meta_mean_motion_ddot": 0,
        "tle_line1": "1 49070U 21073E   25359.79599485 -.00000534  00000+0 -61229-4 0  9990",
        "tle_line2": "2 49070  97.8943  72.0456 0001360  88.0145 272.1223 14.81672316235695"
      },
      "geometry": {
        "type": "Point",
        "coordinates": [
          34.54884341885958,
          77.20072530534074
        ]
      }
    },
    {
      "type": "Feature",
      "properties": {
        "norad_id": 49260,
        "name": "LANDSAT 9",
        "group": "resource",
        "lat": 10.310366774320455,
        "lon": 66.35988586938095,
        "alt_km": 703.9495838690473,
        "timestamp": "2025-12-25T22:42:16.654238+00:00",
        "meta_object_name": "LANDSAT 9",
        "meta_object_id": "2021-088A",
        "meta_epoch": "2025-12-25T16:03:52.818048",
        "meta_mean_motion": 14.57110926,
        "meta_eccentricity": 0.0001112,
        "meta_inclination": 98.2077,
        "meta_ra_of_asc_node": 67.5919,
        "meta_arg_of_pericenter": 93.3722,
        "meta_mean_anomaly": 266.7603,
        "meta_ephemeris_type": 0,
        "meta_classification_type": "U",
        "meta_norad_cat_id": 49260,
        "meta_element_set_no": 999,
        "meta_rev_at_epoch": 22573,
        "meta_bstar": 0.00011103,
        "meta_mean_motion_dot": 4.55e-06,
        "meta_mean_motion_ddot": 0,
        "tle_line1": "1 49260U 21088A   25359.66936132  .00000455  00000+0  11103-3 0  9992",
        "tle_line2": "2 49260  98.2077  67.5919 0001112  93.3722 266.7603 14.57110926225739"
      },
      "geometry": {
        "type": "Point",
        "coordinates": [
          66.35988586938095,
          10.310366774320455
        ]
      }
    },
    {
      "type": "Feature",
      "properties": {
        "norad_id": 51444,
        "name": "CSG-2",
        "group": "resource",
        "lat": 44.01824797072541,
        "lon": 8.761460191719355,
        "alt_km": 618.2420737201846,
        "timestamp": "2025-12-25T22:42:16.654270+00:00",
        "meta_object_name": "CSG-2",
        "meta_object_id": "2022-008A",
        "meta_epoch": "2025-12-25T17:14:07.033344",
        "meta_mean_motion": 14.82155588,
        "meta_eccentricity": 0.0001446,
        "meta_inclination": 97.8805,
        "meta_ra_of_asc_node": 180.8455,
        "meta_arg_of_pericenter": 82.1423,
        "meta_mean_anomaly": 277.9955,
        "meta_ephemeris_type": 0,
        "meta_classification_type": "U",
        "meta_norad_cat_id": 51444,
        "meta_element_set_no": 999,
        "meta_rev_at_epoch": 21089,
        "meta_bstar": 5.2719e-05,
        "meta_mean_motion_dot": 3.68e-06,
        "meta_mean_motion_ddot": 0,
        "tle_line1": "1 51444U 22008A   25359.71813696  .00000368  00000+0  52719-4 0  9999",
        "tle_line2": "2 51444  97.8805 180.8455 0001446  82.1423 277.9955 14.82155588210894"
      },
      "geometry": {
        "type": "Point",
        "coordinates": [
          8.761460191719355,
          44.01824797072541
        ]
      }
    }
  ]
}